{
  "type": "FeatureCollection",
  "features": [
    {
      "type": "Feature",
      "properties": {
        "norad_id": 36828,
        "name": "BEIDOU-2 IGSO-1 (C06)",
        "group": "beidou",
        "lat": 54.01377645011038,
        "lon": -98.04597545074323,
        "alt_km": 35889.00530092469,
        "timestamp": "2025-12-24T03:53:29.912258+00:00",
        "meta_object_name": "BEIDOU-2 IGSO-1 (C06)",
        "meta_object_id": "2010-036A",
        "meta_epoch": "2025-12-20T21:47:26.739168",
        "meta_mean_motion": 1.00282395,
        "meta_eccentricity": 0.0051798,
        "meta_inclination": 54.2882,
        "meta_ra_of_asc_node": 164.5739,
        "meta_arg_of_pericenter": 215.2932,
        "meta_mean_anomaly": 144.6604,
        "meta_ephemeris_type": 0,
        "meta_classification_type": "U",
        "meta_norad_cat_id": 36828,
        "meta_element_set_no": 999,
        "meta_rev_at_epoch": 5631,
        "meta_bstar": 0,
        "meta_mean_motion_dot": -5.5e-07,
        "meta_mean_motion_ddot": 0,
        "tle_line1": "1 36828U 10036A   25354.90794837 -.00000055  00000+0  00000+0 0  9992",
        "tle_line2": "2 36828  54.2882 164.5739 0051798 215.2932 144.6604  1.00282395 56317"
      },
      "geometry": {
        "type": "Point",
        "coordinates": [
          -98.04597545074323,
          54.01377645011038
        ]
      }
    },
    {
      "type": "Feature",
      "properties": {
        "norad_id": 37210,
        "name": "BEIDOU-2 G4 (C04)",
        "group": "beidou",
        "lat": -2.8441132426342763,
        "lon": -48.55129943148289,
        "alt_km": 35756.83097153375,
        "timestamp": "2025-12-24T03:53:29.912280+00:00",
        "meta_object_name": "BEIDOU-2 G4 (C04)",
        "meta_object_id": "2010-057A",
        "meta_epoch": "2025-12-23T20:02:13.890336",
        "meta_mean_motion": 1.00271716,
        "meta_eccentricity": 0.0010411,
        "meta_inclination": 3.2103,
        "meta_ra_of_asc_node": 69.8963,
        "meta_arg_of_pericenter": 193.6948,
        "meta_mean_anomaly": 289.6707,
        "meta_ephemeris_type": 0,
        "meta_classification_type": "U",
        "meta_norad_cat_id": 37210,
        "meta_element_set_no": 999,
        "meta_rev_at_epoch": 5553,
        "meta_bstar": 0,
        "meta_mean_motion_dot": -9.2e-07,
        "meta_mean_motion_ddot": 0,
        "tle_line1": "1 37210U 10057A   25357.83488299 -.00000092  00000+0  00000+0 0  9999",
        "tle_line2": "2 37210   3.2103  69.8963 0010411 193.6948 289.6707  1.00271716 55534"
      },
      "geometry": {
        "type": "Point",
        "coordinates": [
          -48.55129943148289,
          -2.8441132426342763
        ]
      }
    },
    {
      "type": "Feature",
      "properties": {
        "norad_id": 37256,
        "name": "BEIDOU-2 IGSO-2 (C07)",
        "group": "beidou",
        "lat": -10.555057615837775,
        "lon": -95.68227926701559,
        "alt_km": 35914.64151873358,
        "timestamp": "2025-12-24T03:53:29.912295+00:00",
        "meta_object_name": "BEIDOU-2 IGSO-2 (C07)",
        "meta_object_id": "2010-068A",
        "meta_epoch": "2025-12-23T17:03:51.689952",
        "meta_mean_motion": 1.00283101,
        "meta_eccentricity": 0.0048564,
        "meta_inclination": 47.8659,
        "meta_ra_of_asc_node": 274.0149,
        "meta_arg_of_pericenter": 216.3394,
        "meta_mean_anomaly": 326.1369,
        "meta_ephemeris_type": 0,
        "meta_classification_type": "U",
        "meta_norad_cat_id": 37256,
        "meta_element_set_no": 999,
        "meta_rev_at_epoch": 5503,
        "meta_bstar": 0,
        "meta_mean_motion_dot": -1.88e-06,
        "meta_mean_motion_ddot": 0,
        "tle_line1": "1 37256U 10068A   25357.71101493 -.00000188  00000+0  00000+0 0  9992",
        "tle_line2": "2 37256  47.8659 274.0149 0048564 216.3394 326.1369  1.00283101 55035"
      },
      "geometry": {
        "type": "Point",
        "coordinates": [
          -95.68227926701559,
          -10.555057615837775
        ]
      }
    },
    {
      "type": "Feature",
      "properties": {
        "norad_id": 37384,
        "name": "BEIDOU-2 IGSO-3 (C08)",
        "group": "beidou",
        "lat": -32.06889952601269,
        "lon": -118.82981894505778,
        "alt_km": 35661.44057927374,
        "timestamp": "2025-12-24T03:53:29.912308+00:00",
        "meta_object_name": "BEIDOU-2 IGSO-3 (C08)",
        "meta_object_id": "2011-013A",
        "meta_epoch": "2025-12-23T13:38:13.451136",
        "meta_mean_motion": 1.00268394,
        "meta_eccentricity": 0.0035347,
        "meta_inclination": 62.1571,
        "meta_ra_of_asc_node": 41.8137,
        "meta_arg_of_pericenter": 187.6149,
        "meta_mean_anomaly": 174.7745,
        "meta_ephemeris_type": 0,
        "meta_classification_type": "U",
        "meta_norad_cat_id": 37384,
        "meta_element_set_no": 999,
        "meta_rev_at_epoch": 5390,
        "meta_bstar": 0,
        "meta_mean_motion_dot": -1.6e-06,
        "meta_mean_motion_ddot": 0,
        "tle_line1": "1 37384U 11013A   25357.56821124 -.00000160  00000+0  00000+0 0  9998",
        "tle_line2": "2 37384  62.1571  41.8137 0035347 187.6149 174.7745  1.00268394 53906"
      },
      "geometry": {
        "type": "Point",
        "coordinates": [
          -118.82981894505778,
          -32.06889952601269
        ]
      }
    },
    {
      "type": "Feature",
      "properties": {
        "norad_id": 37763,
        "name": "BEIDOU-2 IGSO-4 (C09)",
        "group": "beidou",
        "lat": 52.81932721635376,
        "lon": -122.86646301454033,
        "alt_km": 36331.707308959245,
        "timestamp": "2025-12-24T03:53:29.912320+00:00",
        "meta_object_name": "BEIDOU-2 IGSO-4 (C09)",
        "meta_object_id": "2011-038A",
        "meta_epoch": "2025-12-21T10:06:26.864064",
        "meta_mean_motion": 1.00280083,
        "meta_eccentricity": 0.01491557,
        "meta_inclination": 54.5854,
        "meta_ra_of_asc_node": 167.2693,
        "meta_arg_of_pericenter": 230.0944,
        "meta_mean_anomaly": 299.1265,
        "meta_ephemeris_type": 0,
        "meta_classification_type": "U",
        "meta_norad_cat_id": 37763,
        "meta_element_set_no": 999,
        "meta_rev_at_epoch": 5286,
        "meta_bstar": 0,
        "meta_mean_motion_dot": 5.9e-07,
        "meta_mean_motion_ddot": 0,
        "tle_line1": "1 37763U 11038A   25355.42114426  .00000059  00000+0  00000+0 0  9995",
        "tle_line2": "2 37763  54.5854 167.2693 0149155 230.0944 299.1265  1.00280083 52867"
      },
      "geometry": {
        "type": "Point",
        "coordinates": [
          -122.86646301454033,
          52.81932721635376
        ]
      }
    },
    {
      "type": "Feature",
      "properties": {
        "norad_id": 37948,
        "name": "BEIDOU-2 IGSO-5 (C10)",
        "group": "beidou",
        "lat": -20.202848198495662,
        "lon": -105.60465412564028,
        "alt_km": 35940.31981306249,
        "timestamp": "2025-12-24T03:53:29.912346+00:00",
        "meta_object_name": "BEIDOU-2 IGSO-5 (C10)",
        "meta_object_id": "2011-073A",
        "meta_epoch": "2025-12-23T15:38:27.014784",
        "meta_mean_motion": 1.00288757,
        "meta_eccentricity": 0.0109744,
        "meta_inclination": 47.9999,
        "meta_ra_of_asc_node": 273.7252,
        "meta_arg_of_pericenter": 222.2004,
        "meta_mean_anomaly": 284.7176,
        "meta_ephemeris_type": 0,
        "meta_classification_type": "U",
        "meta_norad_cat_id": 37948,
        "meta_element_set_no": 999,
        "meta_rev_at_epoch": 5137,
        "meta_bstar": 0,
        "meta_mean_motion_dot": -1.38e-06,
        "meta_mean_motion_ddot": 0,
        "tle_line1": "1 37948U 11073A   25357.65170156 -.00000138  00000+0  00000+0 0  9997",
        "tle_line2": "2 37948  47.9999 273.7252 0109744 222.2004 284.7176  1.00288757 51374"
      },
      "geometry": {
        "type": "Point",
        "coordinates": [
          -105.60465412564028,
          -20.202848198495662
        ]
      }
    },
    {
      "type": "Feature",
      "properties": {
        "norad_id": 38091,
        "name": "BEIDOU-2 G5 (C05)",
        "group": "beidou",
        "lat": 2.04249038255636,
        "lon": -150.05376834591254,
        "alt_km": 35788.84438758795,
        "timestamp": "2025-12-24T03:53:29.912361+00:00",
        "meta_object_name": "BEIDOU-2 G5 (C05)",
        "meta_object_id": "2012-008A",
        "meta_epoch": "2025-12-23T20:15:33.482592",
        "meta_mean_motion": 1.00269682,
        "meta_eccentricity": 0.0013063,
        "meta_inclination": 3.1351,
        "meta_ra_of_asc_node": 70.6688,
        "meta_arg_of_pericenter": 232.0754,
        "meta_mean_anomaly": 152.516,
        "meta_ephemeris_type": 0,
        "meta_classification_type": "U",
        "meta_norad_cat_id": 38091,
        "meta_element_set_no": 999,
        "meta_rev_at_epoch": 5061,
        "meta_bstar": 0,
        "meta_mean_motion_dot": 7.7e-07,
        "meta_mean_motion_ddot": 0,
        "tle_line1": "1 38091U 12008A   25357.84413753  .00000077  00000+0  00000+0 0  9991",
        "tle_line2": "2 38091   3.1351  70.6688 0013063 232.0754 152.5160  1.00269682 50613"
      },
      "geometry": {
        "type": "Point",
        "coordinates": [
          -150.05376834591254,
          2.04249038255636
        ]
      }
    }
  ]
}